OBJECT_NAME,OBJECT_ID,EPOCH,MEAN_MOTION,ECCENTRICITY,INCLINATION,RA_OF_ASC_NODE,ARG_OF_PERICENTER,MEAN_ANOMALY,EPHEMERIS_TYPE,CLASSIFICATION_TYPE,NORAD_CAT_ID,ELEMENT_SET_NO,REV_AT_EPOCH,BSTAR,MEAN_MOTION_DOT,MEAN_MOTION_DDOT
STARLINK-36572,2026-014E,2026-07-19T06:02:58.862688,15.33444527,.00019075,97.2858,86.4846,94.0567,266.0893,0,U,67536,999,2894,.25422061E-3,.8141E-4,0
STARLINK-36561,2026-014F,2026-07-19T05:51:14.322528,15.33445261,.00019648,97.2822,86.4981,85.8434,274.3034,0,U,67537,999,2894,.28600672E-3,.917E-4,0
STARLINK-36397,2026-014G,2026-07-19T16:25:31.193184,15.33433847,.0001934,97.2850,86.9654,102.5278,257.6181,0,U,67538,999,2901,.82377E-4,.2584E-4,0
STARLINK-36573,2026-014H,2026-07-19T15:11:07.475424,15.33459761,.0002276,97.2845,86.8859,91.3487,268.8016,0,U,67539,999,2900,.40639E-3,.13074E-3,0
STARLINK-36585,2026-014J,2026-07-19T16:37:15.716064,15.33448487,.0001783,97.2853,86.9572,87.5905,272.5542,0,U,67540,999,2901,.27977E-3,.8969E-4,0
STARLINK-36579,2026-014K,2026-07-19T09:34:24.896928,15.33447270,.00020656,97.2846,86.7444,89.2895,270.8585,0,U,67541,999,2897,.31625725E-3,.1015E-3,0
STARLINK-35934,2026-014L,2026-07-19T09:42:14.245056,15.33445760,.00018,97.2847,86.7393,103.5992,256.5452,0,U,67542,999,2896,.18121634E-3,.578E-4,0
STARLINK-36581,2026-014M,2026-07-19T16:41:10.578048,15.33451082,.0001851,97.2846,86.9556,89.6781,270.4674,0,U,67543,999,2901,.31301E-3,.10046E-3,0
STARLINK-36565,2026-014N,2026-07-19T05:55:09.278688,15.33439341,.00025485,97.2843,86.4947,71.7656,288.3864,0,U,67544,999,2894,.12328399E-3,.3907E-4,0
STARLINK-36583,2026-014P,2026-07-19T05:15:59.654016,15.33433042,.00013212,97.2823,86.5270,116.7533,243.3845,0,U,67545,999,2894,.12558511E-3,.398E-4,0
STARLINK-36580,2026-014Q,2026-07-19T06:06:55.010304,15.33417868,.00020648,97.2861,86.4823,98.1689,261.9788,0,U,67546,999,2894,-.79320825E-4,-.2633E-4,0
STARLINK-36584,2026-014R,2026-07-19T09:50:04.237728,15.33441668,.00024225,97.2860,86.7287,83.8593,276.2925,0,U,67547,999,2897,.18064801E-3,.5761E-4,0
STARLINK-36586,2026-014S,2026-07-19T06:38:13.347168,15.33442207,.00021735,97.2849,86.6067,92.0780,268.0711,0,U,67548,999,2895,.19465238E-3,.6214E-4,0
STARLINK-36564,2026-014T,2026-07-19T06:10:50.789856,15.33456932,.00022247,97.2853,86.4783,80.8853,279.2641,0,U,67549,999,2888,.79201946E-3,.25592E-3,0
STARLINK-36563,2026-014U,2026-07-19T15:54:11.727072,15.33460789,.0001713,97.2851,86.9982,98.2241,261.9196,0,U,67550,999,2901,.35651E-3,.11458E-3,0
STARLINK-36566,2026-014V,2026-07-19T06:18:39.954816,15.33428109,.00018062,97.2846,86.4714,93.8267,266.3182,0,U,67551,999,2893,.34733445E-3,.11149E-3,0
STARLINK-36567,2026-014W,2026-07-19T09:53:59.107488,15.33440726,.00016179,97.2854,86.7227,92.6511,267.4917,0,U,67552,999,2896,.82472193E-4,.2588E-4,0
STARLINK-36569,2026-014X,2026-07-19T16:21:36.205920,15.33454033,.0002806,97.2831,86.9748,83.5644,276.5918,0,U,67553,999,2900,.30077E-3,.9651E-4,0
STARLINK-36395,2026-014Y,2026-07-19T16:40:33.885696,15.33448005,.0001653,97.2845,89.8539,91.3059,268.8373,0,U,67554,999,2919,.20519E-3,.6556E-4,0
STARLINK-36559,2026-014Z,2026-07-19T16:33:21.186720,15.33431393,.0001691,97.2847,86.9615,92.8850,267.2587,0,U,67555,999,2900,.26782E-3,.8577E-4,0
STARLINK-36426,2026-014AA,2026-07-19T20:28:16.061952,15.33439341,.000214,97.2851,87.1997,88.6860,271.4628,0,U,67560,999,2903,.20448E-3,.6531E-4,0
STARLINK-36621,2026-016A,2026-07-19T17:08:05.662752,15.33442964,.0001169,97.2814,260.1969,127.7574,232.3775,0,U,67561,999,2709,.15583E-3,.4959E-4,0
STARLINK-36398,2026-016B,2026-07-19T17:19:50.874240,15.33446175,.0001075,97.2834,260.3406,161.8464,198.2817,0,U,67562,999,2710,.30256E-3,.9706E-4,0
STARLINK-36403,2026-016C,2026-07-19T17:47:15.029952,15.33438746,.0000595,97.2850,260.3134,142.0523,218.0762,0,U,67563,999,2710,.13543E-3,.4299E-4,0
STARLINK-36593,2026-016D,2026-07-19T17:55:05.104704,15.33438183,.0001711,97.2838,260.3054,90.5284,269.6155,0,U,67564,999,2710,.15709E-3,.4999E-4,0
STARLINK-35725,2026-016E,2026-07-19T16:48:31.021920,15.33453117,.0000288,97.2780,260.2149,71.1116,289.0158,0,U,67565,999,2709,.16661E-3,.5309E-4,0
STARLINK-36394,2026-016F,2026-07-19T16:52:26.592384,15.33450258,.0001097,97.2841,260.2153,197.1468,162.9738,0,U,67566,999,2709,.24713E-3,.7913E-4,0
STARLINK-36352,2026-016G,2026-07-19T17:39:25.051104,15.33444123,.0000285,97.2836,260.3246,227.8451,132.2768,0,U,67567,999,2710,.26388E-3,.8453E-4,0
STARLINK-36435,2026-016H,2026-07-19T14:15:49.341312,15.33445661,.0000958,97.2846,260.2119,89.6308,270.5044,0,U,67568,999,2708,.25585E-3,.8194E-4,0
STARLINK-36575,2026-016J,2026-07-19T20:18:09.635040,15.33442096,.0000714,97.2844,261.3916,80.4068,279.7255,0,U,67569,999,2718,.15454E-3,.4917E-4,0
