STARLINK-36572          
1 67536U 26014E   26200.25207017  .00008141  00000+0  25422-3 0  9995
2 67536  97.2858  86.4846 0001907  94.0567 266.0893 15.33444527 28947
STARLINK-36561          
1 67537U 26014F   26200.24391577  .00009170  00000+0  28601-3 0  9995
2 67537  97.2822  86.4981 0001964  85.8434 274.3034 15.33445261 28948
STARLINK-36397          
1 67538U 26014G   26200.68438881  .00002584  00000+0  82377-4 0  9997
2 67538  97.2850  86.9654 0001934 102.5278 257.6181 15.33433847 29015
STARLINK-36573          
1 67539U 26014H   26200.63272541  .00013074  00000+0  40639-3 0  9992
2 67539  97.2845  86.8859 0002276  91.3487 268.8016 15.33459761 29006
STARLINK-36585          
1 67540U 26014J   26200.69254301  .00008969  00000+0  27977-3 0  9991
2 67540  97.2853  86.9572 0001783  87.5905 272.5542 15.33448487 29014
STARLINK-36579          
1 67541U 26014K   26200.39889927  .00010150  00000+0  31626-3 0  9998
2 67541  97.2846  86.7444 0002065  89.2895 270.8585 15.33447270 28975
STARLINK-35934          
1 67542U 26014L   26200.40433154  .00005780  00000+0  18122-3 0  9997
2 67542  97.2847  86.7393 0001800 103.5992 256.5452 15.33445760 28969
STARLINK-36581          
1 67543U 26014M   26200.69526132  .00010046  00000+0  31301-3 0  9993
2 67543  97.2846  86.9556 0001851  89.6781 270.4674 15.33451082 29010
STARLINK-36565          
1 67544U 26014N   26200.24663517  .00003907  00000+0  12328-3 0  9990
2 67544  97.2843  86.4947 0002548  71.7656 288.3864 15.33439341 28948
STARLINK-36583          
1 67545U 26014P   26200.21944044  .00003980  00000+0  12559-3 0  9992
2 67545  97.2823  86.5270 0001321 116.7533 243.3845 15.33433042 28941
STARLINK-36580          
1 67546U 26014Q   26200.25480336 -.00002633  00000+0 -79321-4 0  9993
2 67546  97.2861  86.4823 0002064  98.1689 261.9788 15.33417868 28947
STARLINK-36584          
1 67547U 26014R   26200.40977127  .00005761  00000+0  18065-3 0  9990
2 67547  97.2860  86.7287 0002422  83.8593 276.2925 15.33441668 28977
STARLINK-36586          
1 67548U 26014S   26200.27654337  .00006214  00000+0  19465-3 0  9990
2 67548  97.2849  86.6067 0002173  92.0780 268.0711 15.33442207 28953
STARLINK-36564          
1 67549U 26014T   26200.25753229  .00025592  00000+0  79202-3 0  9994
2 67549  97.2853  86.4783 0002224  80.8853 279.2641 15.33456932 28883
STARLINK-36563          
1 67550U 26014U   26200.66263573  .00011458  00000+0  35651-3 0  9995
2 67550  97.2851  86.9982 0001713  98.2241 261.9196 15.33460789 29019
STARLINK-36566          
1 67551U 26014V   26200.26296244  .00011149  00000+0  34733-3 0  9990
2 67551  97.2846  86.4714 0001806  93.8267 266.3182 15.33428109 28938
STARLINK-36567          
1 67552U 26014W   26200.41248967  .00002588  00000+0  82472-4 0  9998
2 67552  97.2854  86.7227 0001617  92.6511 267.4917 15.33440726 28969
STARLINK-36569          
1 67553U 26014X   26200.68166905  .00009651  00000+0  30077-3 0  9990
2 67553  97.2831  86.9748 0002806  83.5644 276.5918 15.33454033 29006
STARLINK-36395          
1 67554U 26014Y   26200.69483664  .00006556  00000+0  20519-3 0  9997
2 67554  97.2845  89.8539 0001653  91.3059 268.8373 15.33448005 29199
STARLINK-36559          
1 67555U 26014Z   26200.68982855  .00008577  00000+0  26782-3 0  9996
2 67555  97.2847  86.9615 0001691  92.8850 267.2587 15.33431393 29004
STARLINK-36426          
1 67560U 26014AA  26200.85296368  .00006531  00000+0  20448-3 0  9999
2 67560  97.2851  87.1997 0002140  88.6860 271.4628 15.33439341 29032
STARLINK-36621          
1 67561U 26016A   26200.71395443  .00004959  00000+0  15583-3 0  9997
2 67561  97.2814 260.1969 0001169 127.7574 232.3775 15.33442964 27099
STARLINK-36398          
1 67562U 26016B   26200.72211660  .00009706  00000+0  30256-3 0  9996
2 67562  97.2834 260.3406 0001075 161.8464 198.2817 15.33446175 27100
STARLINK-36403          
1 67563U 26016C   26200.74114618  .00004299  00000+0  13543-3 0  9996
2 67563  97.2850 260.3134 0000595 142.0523 218.0762 15.33438746 27105
STARLINK-36593          
1 67564U 26016D   26200.74658686  .00004999  00000+0  15709-3 0  9998
2 67564  97.2838 260.3054 0001711  90.5284 269.6155 15.33438183 27108
STARLINK-35725          
1 67565U 26016E   26200.70035905  .00005309  00000+0  16661-3 0  9992
2 67565  97.2780 260.2149 0000288  71.1116 289.0158 15.33453117 27097
STARLINK-36394          
1 67566U 26016F   26200.70308556  .00007913  00000+0  24713-3 0  9998
2 67566  97.2841 260.2153 0001097 197.1468 162.9738 15.33450258 27095
STARLINK-36352          
1 67567U 26016G   26200.73570661  .00008453  00000+0  26388-3 0  9990
2 67567  97.2836 260.3246 0000285 227.8451 132.2768 15.33444123 27104
STARLINK-36435          
1 67568U 26016H   26200.59432108  .00008194  00000+0  25585-3 0  9998
2 67568  97.2846 260.2119 0000958  89.6308 270.5044 15.33445661 27084
STARLINK-36575          
1 67569U 26016J   26200.84594485  .00004917  00000+0  15454-3 0  9997
2 67569  97.2844 261.3916 0000714  80.4068 279.7255 15.33442096 27187
